NORAD_CAT_ID,OBJECT_NAME,OBJECT_TYPE,EPOCH,MEAN_MOTION,ECCENTRICITY,INCLINATION,RA_OF_ASC_NODE,ARG_OF_PERICENTER,MEAN_ANOMALY,BSTAR,MEAN_MOTION_DOT,MEAN_MOTION_DDOT,TLE_LINE0,TLE_LINE1,TLE_LINE2,SEMIMAJOR_AXIS,PERIOD,APOGEE,PERIGEE,DECAYED
56769.0,STARLINK-5978,PAYLOAD,2024-02-10 12:58:25,14.98327774,0.0002959,70.0,116.0244,265.6814,94.4007,4.4335e-05,4.36e-06,0.0,0 STARLINK-5978,1 56769U 23078C   24041.54056787  .00000436  00000-0  44335-4 0  9992,2 56769  70.0000 116.0244 0002959 265.6814  94.4007 14.98327774 38622,6950.2,96.107,574.121,570.008,0.0
56769.0,STARLINK-5978,PAYLOAD,2024-02-10 14:34:33,14.98327762,0.0002996,69.9999,115.856,266.9585,93.1231,4.0461e-05,3.9e-06,0.0,0 STARLINK-5978,1 56769U 23078C   24041.60732808  .00000390  00000-0  40461-4 0  9999,2 56769  69.9999 115.8560 0002996 266.9585  93.1231 14.98327762 38637,6950.2,96.107,574.147,569.983,0.0
56769.0,STARLINK-5978,PAYLOAD,2024-02-11 11:24:17,14.98331553,0.0002989,70.0001,113.6682,267.7251,92.3566,-9.4436e-06,-2.06e-06,0.0,0 STARLINK-5978,1 56769U 23078C   24042.47520653 -.00000206  00000-0 -94436-5 0  9998,2 56769  70.0001 113.6682 0002989 267.7251  92.3566 14.98331553 39025,6950.188,96.107,574.13,569.976,0.0
56769.0,STARLINK-5978,PAYLOAD,2024-02-11 14:36:33,14.98331536,0.0002997,70.0,113.3314,268.0414,92.0401,-8.9772e-06,-2e-06,0.0,0 STARLINK-5978,1 56769U 23078C   24042.60872646 -.00000200  00000-0 -89772-5 0  9996,2 56769  70.0000 113.3314 0002997 268.0414  92.0401 14.98331536 38785,6950.188,96.107,574.136,569.97,0.0
56769.0,STARLINK-5978,PAYLOAD,2024-02-12 11:26:18,14.98333086,0.0003063,69.9998,111.1427,270.1896,89.8912,6.518e-05,6.85e-06,0.0,0 STARLINK-5978,1 56769U 23078C   24043.47660246  .00000685  00000-0  65180-4 0  9994,2 56769  69.9998 111.1427 0003063 270.1896  89.8912 14.98333086 39179,6950.183,96.107,574.177,569.92,0.0
56769.0,STARLINK-5978,PAYLOAD,2024-02-12 14:38:34,14.98333673,0.0003056,69.9998,110.8058,270.2448,89.8361,7.0166e-05,7.44e-06,0.0,0 STARLINK-5978,1 56769U 23078C   24043.61012175  .00000744  00000-0  70166-4 0  9998,2 56769  69.9998 110.8058 0003056 270.2448  89.8361 14.98333673 38934,6950.182,96.107,574.171,569.923,0.0
56769.0,STARLINK-5978,PAYLOAD,2024-02-13 11:28:19,14.98328913,0.0002961,70.0,108.6179,269.6898,90.3921,1.6952e-05,1.09e-06,0.0,0 STARLINK-5978,1 56769U 23078C   24044.47800572  .00000109  00000-0  16952-4 0  9997,2 56769  70.0000 108.6179 0002961 269.6898  90.3921 14.98328913 39329,6950.196,96.107,574.119,570.003,0.0
56769.0,STARLINK-5978,PAYLOAD,2024-02-13 13:04:27,14.98329014,0.000296,70.0,108.4496,269.6831,90.3989,1.8349e-05,1.26e-06,0.0,0 STARLINK-5978,1 56769U 23078C   24044.54476584  .00000126  00000-0  18349-4 0  9998,2 56769  70.0000 108.4496 0002960 269.6831  90.3989 14.98329014 39074,6950.196,96.107,574.118,570.004,0.0
56769.0,STARLINK-5978,PAYLOAD,2024-02-13 21:05:08,14.98330264,0.0002924,69.9999,107.6078,268.6256,91.4568,2.0233e-06,-6.9e-07,0.0,0 STARLINK-5978,1 56769U 23078C   24044.87856547 -.00000069  00000-0  20233-5 0  9998,2 56769  69.9999 107.6078 0002924 268.6256  91.4568 14.98330264 39125,6950.192,96.107,574.089,570.025,0.0
56769.0,STARLINK-5978,PAYLOAD,2024-02-14 11:30:20,14.98330502,0.0002909,69.9998,106.0929,268.0889,91.9937,-1.2536e-05,-2.43e-06,0.0,0 STARLINK-5978,1 56769U 23078C   24045.47940510 -.00000243  00000-0 -12536-4 0  9990,2 56769  69.9998 106.0929 0002909 268.0889  91.9937 14.98330502 39479,6950.191,96.107,574.078,570.035,0.0
56769.0,STARLINK-5978,PAYLOAD,2024-02-14 13:06:28,14.98330172,0.0002913,69.9998,105.9246,267.9873,92.0952,-1.611e-05,-2.85e-06,0.0,0 STARLINK-5978,1 56769U 23078C   24045.54616544 -.00000285  00000-0 -16110-4 0  9993,2 56769  69.9998 105.9246 0002913 267.9873  92.0952 14.98330172 39220,6950.192,96.107,574.082,570.033,0.0
56769.0,STARLINK-5978,PAYLOAD,2024-02-14 21:07:08,14.98330462,0.0002955,69.9998,105.0831,269.1701,90.912,7.9711e-06,2e-08,0.0,0 STARLINK-5978,1 56769U 23078C   24045.87996448  .00000002  00000-0  79711-5 0  9995,2 56769  69.9998 105.0831 0002955 269.1701  90.9120 14.98330462 39272,6950.191,96.107,574.11,570.003,0.0
56769.0,STARLINK-5978,PAYLOAD,2024-02-15 11:32:21,14.98329987,0.0002987,69.9996,103.5682,269.2493,90.8324,3.9574e-05,3.79e-06,0.0,0 STARLINK-5978,1 56769U 23078C   24046.48080375  .00000379  00000-0  39574-4 0  9995,2 56769  69.9996 103.5682 0002987 269.2493  90.8324 14.98329987 39625,6950.193,96.107,574.134,569.982,0.0
56769.0,STARLINK-5978,PAYLOAD,2024-02-15 13:08:29,14.98329883,0.0003003,69.9995,103.3998,269.5327,90.5488,3.6927e-05,3.48e-06,0.0,0 STARLINK-5978,1 56769U 23078C   24046.54756393  .00000348  00000-0  36927-4 0  9997,2 56769  69.9995 103.3998 0003003 269.5327  90.5488 14.98329883 39376,6950.193,96.107,574.145,569.971,0.0
56769.0,STARLINK-5978,PAYLOAD,2024-02-16 11:34:21,14.98341258,0.0003105,69.9992,101.0427,269.4508,90.6295,0.00013995,1.578e-05,0.0,0 STARLINK-5978,1 56769U 23078C   24047.48219207  .00001578  00000-0  13995-3 0  9994,2 56769  69.9992 101.0427 0003105 269.4508  90.6295 14.98341258 39779,6950.158,96.106,574.181,569.865,0.0
56769.0,STARLINK-5978,PAYLOAD,2024-02-16 13:10:29,14.98342284,0.0003091,69.9992,100.8744,269.4058,90.6747,0.0001491,1.687e-05,0.0,0 STARLINK-5978,1 56769U 23078C   24047.54895064  .00001687  00000-0  14910-3 0  9991,2 56769  69.9992 100.8744 0003091 269.4058  90.6747 14.98342284 39527,6950.155,96.106,574.168,569.872,0.0
56769.0,STARLINK-5978,PAYLOAD,2024-02-17 03:35:42,14.98331302,0.0002811,69.9999,99.3595,266.5534,93.5304,-5.4798e-06,-1.58e-06,0.0,0 STARLINK-5978,1 56769U 23078C   24048.14979999 -.00000158  00000-0 -54798-5 0  9992,2 56769  69.9999  99.3595 0002811 266.5534  93.5304 14.98331302 39874,6950.189,96.107,574.008,570.1,0.0
56769.0,STARLINK-5978,PAYLOAD,2024-02-17 11:36:23,14.9832469,0.0002894,69.9998,98.5196,269.147,90.9358,-5.2438e-05,-7.19e-06,0.0,0 STARLINK-5978,1 56769U 23078C   24048.48360572 -.00000719  00000-0 -52438-4 0  9991,2 56769  69.9998  98.5196 0002894 269.1470  90.9358 14.98324690 39928,6950.209,96.107,574.086,570.063,0.0
56769.0,STARLINK-5978,PAYLOAD,2024-02-17 13:12:31,14.98324084,0.0002899,69.9998,98.3512,269.2001,90.8826,-5.8851e-05,-7.95e-06,0.0,0 STARLINK-5978,1 56769U 23078C   24048.55036637 -.00000795  00000-0 -58851-4 0  9990,2 56769  69.9998  98.3512 0002899 269.2001  90.8826 14.98324084 39672,6950.211,96.107,574.091,570.061,0.0
56769.0,STARLINK-5978,PAYLOAD,2024-02-18 11:38:23,14.98336345,0.0002929,69.9995,95.9933,267.2877,92.7947,-9.2089e-05,-1.192e-05,0.0,0 STARLINK-5978,1 56769U 23078C   24049.48499937 -.00001192  00000-0 -92089-4 0  9992,2 56769  69.9995  95.9933 0002929 267.2877  92.7947 14.98336345 40076,6950.173,96.107,574.074,570.003,0.0
56769.0,STARLINK-5978,PAYLOAD,2024-02-18 13:14:31,14.98337587,0.0003123,69.9989,95.8246,270.0871,89.993,-9.1689e-05,-1.187e-05,0.0,0 STARLINK-5978,1 56769U 23078C   24049.55175812 -.00001187  00000-0 -91689-4 0  9992,2 56769  69.9989  95.8246 0003123 270.0871  89.9930 14.98337587 39828,6950.169,96.107,574.205,569.864,0.0
56769.0,STARLINK-5978,PAYLOAD,2024-02-18 19:39:04,14.98336498,0.000308,69.999,95.1511,270.3332,89.7474,-9.7014e-05,-1.251e-05,0.0,0 STARLINK-5978,1 56769U 23078C   24049.81879800 -.00001251  00000-0 -97014-4 0  9999,2 56769  69.9990  95.1511 0003080 270.3332  89.7474 14.98336498 39860,6950.173,96.107,574.178,569.897,0.0
56769.0,STARLINK-5978,PAYLOAD,2024-02-19 11:40:24,14.98331407,0.000292,69.9991,93.4683,270.3017,89.7807,0.000133,1.494e-05,0.0,0 STARLINK-5978,1 56769U 23078C   24050.48639564  .00001494  00000-0  13300-3 0  9997,2 56769  69.9991  93.4683 0002920 270.3017  89.7807 14.98331407 40221,6950.189,96.107,574.083,570.024,0.0
56769.0,STARLINK-5978,PAYLOAD,2024-02-19 13:16:32,14.98332432,0.0002917,69.9991,93.3,270.1879,89.8946,0.00014173,1.599e-05,0.0,0 STARLINK-5978,1 56769U 23078C   24050.55315472  .00001599  00000-0  14173-3 0  9999,2 56769  69.9991  93.3000 0002917 270.1879  89.8946 14.98332432 39977,6950.185,96.107,574.078,570.023,0.0
56769.0,STARLINK-5978,PAYLOAD,2024-02-19 19:41:05,14.98327609,0.0002198,70.0011,92.6281,262.2214,97.8696,-0.00012541,-1.589e-05,0.0,0 STARLINK-5978,1 56769U 23078C   24050.82020655 -.00001589  00000-0 -12541-3 0  9993,2 56769  70.0011  92.6281 0002198 262.2214  97.8696 14.98327609 40278,6950.2,96.107,573.593,570.538,0.0
56769.0,STARLINK-5978,PAYLOAD,2024-02-20 11:42:27,14.98315098,0.0002735,69.9997,90.944,267.0748,93.0098,-0.00011385,-1.451e-05,0.0,0 STARLINK-5978,1 56769U 23078C   24051.48781671 -.00001451  00000-0 -11385-3 0  9991,2 56769  69.9997  90.9440 0002735 267.0748  93.0098 14.98315098 40372,6950.239,96.108,574.005,570.203,0.0
56769.0,STARLINK-5978,PAYLOAD,2024-02-20 19:43:07,14.98318389,0.0002897,69.9992,90.1017,269.1366,90.9462,-8.099e-05,-1.059e-05,0.0,0 STARLINK-5978,1 56769U 23078C   24051.82161579 -.00001059  00000-0 -80990-4 0  9991,2 56769  69.9992  90.1017 0002897 269.1366  90.9462 14.98318389 40161,6950.229,96.108,574.107,570.08,0.0
56769.0,STARLINK-5978,PAYLOAD,2024-02-21 03:43:47,14.98322909,0.0002875,69.9991,89.2605,268.6335,91.4495,-5.5596e-05,-7.56e-06,0.0,0 STARLINK-5978,1 56769U 23078C   24052.15541453 -.00000756  00000-0 -55596-4 0  9998,2 56769  69.9991  89.2605 0002875 268.6335  91.4495 14.98322909 40477,6950.215,96.107,574.078,570.082,0.0
56769.0,STARLINK-5978,PAYLOAD,2024-02-21 11:44:28,14.98321798,0.0002901,69.9987,88.4177,266.9179,93.1648,-6.4641e-05,-8.64e-06,0.0,0 STARLINK-5978,1 56769U 23078C   24052.48921719 -.00000864  00000-0 -64641-4 0  9992,2 56769  69.9987  88.4177 0002901 266.9179  93.1648 14.98321798 40265,6950.218,96.108,574.1,570.067,0.0
56769.0,STARLINK-5978,PAYLOAD,2024-02-21 19:45:08,14.98323973,0.0002664,69.9994,87.5758,272.3578,87.7276,-9.5155e-05,-1.228e-05,0.0,0 STARLINK-5978,1 56769U 23078C   24052.82301928 -.00001228  00000-0 -95155-4 0  9993,2 56769  69.9994  87.5758 0002664 272.3578  87.7276 14.98323973 40317,6950.212,96.107,573.928,570.225,0.0
